{
  "type": "FeatureCollection",
  "features": [
    {
      "type": "Feature",
      "properties": {
        "norad_id": 66570,
        "name": "STARLINK-35834",
        "group": "last-30-days",
        "lat": -16.340383540539968,
        "lon": -46.63845389196754,
        "alt_km": 415.4107360266371,
        "timestamp": "2025-12-13T18:50:03.172756+00:00",
        "meta_object_name": "STARLINK-35834",
        "meta_object_id": "2025-268P",
        "meta_epoch": "2025-12-13T07:08:13.057440",
        "meta_mean_motion": 15.5068145,
        "meta_eccentricity": 0.00019144,
        "meta_inclination": 42.9999,
        "meta_ra_of_asc_node": 117.8755,
        "meta_arg_of_pericenter": 275.8502,
        "meta_mean_anomaly": 84.214,
        "meta_ephemeris_type": 0,
        "meta_classification_type": "U",
        "meta_norad_cat_id": 66570,
        "meta_element_set_no": 999,
        "meta_rev_at_epoch": 471,
        "meta_bstar": 0.0035844241,
        "meta_mean_motion_dot": 0.00216654,
        "meta_mean_motion_ddot": 0,
        "tle_line1": "1 66570U 25268P   25347.29737335  .00216654  00000+0  35844-2 0  9996",
        "tle_line2": "2 66570  42.9999 117.8755 0001914 275.8502  84.2140 15.50681450  4712"
      },
      "geometry": {
        "type": "Point",
        "coordinates": [
          -46.63845389196754,
          -16.340383540539968
        ]
      }
    },
    {
      "type": "Feature",
      "properties": {
        "norad_id": 66571,
        "name": "STARLINK-35836",
        "group": "last-30-days",
        "lat": -17.584727000068757,
        "lon": -45.09844050690607,
        "alt_km": 415.62968185750196,
        "timestamp": "2025-12-13T18:50:03.172769+00:00",
        "meta_object_name": "STARLINK-35836",
        "meta_object_id": "2025-268Q",
        "meta_epoch": "2025-12-13T07:07:43.416192",
        "meta_mean_motion": 15.50679355,
        "meta_eccentricity": 0.00012087,
        "meta_inclination": 42.9995,
        "meta_ra_of_asc_node": 117.8724,
        "meta_arg_of_pericenter": 276.4988,
        "meta_mean_anomaly": 83.5734,
        "meta_ephemeris_type": 0,
        "meta_classification_type": "U",
        "meta_norad_cat_id": 66571,
        "meta_element_set_no": 999,
        "meta_rev_at_epoch": 471,
        "meta_bstar": 0.0036460141,
        "meta_mean_motion_dot": 0.00220475,
        "meta_mean_motion_ddot": 0,
        "tle_line1": "1 66571U 25268Q   25347.29703028  .00220475  00000+0  36460-2 0  9990",
        "tle_line2": "2 66571  42.9995 117.8724 0001208 276.4988  83.5734 15.50679355  4718"
      },
      "geometry": {
        "type": "Point",
        "coordinates": [
          -45.09844050690607,
          -17.584727000068757
        ]
      }
    },
    {
      "type": "Feature",
      "properties": {
        "norad_id": 66572,
        "name": "STARLINK-35870",
        "group": "last-30-days",
        "lat": -18.792121870168117,
        "lon": -43.567074041539314,
        "alt_km": 415.52502181408,
        "timestamp": "2025-12-13T18:50:03.172779+00:00",
        "meta_object_name": "STARLINK-35870",
        "meta_object_id": "2025-268R",
        "meta_epoch": "2025-12-13T07:07:13.690272",
        "meta_mean_motion": 15.50672689,
        "meta_eccentricity": 0.00018787,
        "meta_inclination": 42.9997,
        "meta_ra_of_asc_node": 117.8716,
        "meta_arg_of_pericenter": 272.7615,
        "meta_mean_anomaly": 87.303,
        "meta_ephemeris_type": 0,
        "meta_classification_type": "U",
        "meta_norad_cat_id": 66572,
        "meta_element_set_no": 999,
        "meta_rev_at_epoch": 471,
        "meta_bstar": 0.0035819387,
        "meta_mean_motion_dot": 0.00216429,
        "meta_mean_motion_ddot": 0,
        "tle_line1": "1 66572U 25268R   25347.29668623  .00216429  00000+0  35819-2 0  9993",
        "tle_line2": "2 66572  42.9997 117.8716 0001878 272.7615  87.3030 15.50672689  4715"
      },
      "geometry": {
        "type": "Point",
        "coordinates": [
          -43.567074041539314,
          -18.792121870168117
        ]
      }
    },
    {
      "type": "Feature",
      "properties": {
        "norad_id": 66573,
        "name": "STARLINK-35650",
        "group": "last-30-days",
        "lat": -19.951528961402573,
        "lon": -42.0650287885178,
        "alt_km": 415.3492376624954,
        "timestamp": "2025-12-13T18:50:03.172789+00:00",
        "meta_object_name": "STARLINK-35650",
        "meta_object_id": "2025-268S",
        "meta_epoch": "2025-12-13T07:06:43.905600",
        "meta_mean_motion": 15.50639523,
        "meta_eccentricity": 0.00018406,
        "meta_inclination": 42.9994,
        "meta_ra_of_asc_node": 117.8654,
        "meta_arg_of_pericenter": 243.6153,
        "meta_mean_anomaly": 116.4518,
        "meta_ephemeris_type": 0,
        "meta_classification_type": "U",
        "meta_norad_cat_id": 66573,
        "meta_element_set_no": 999,
        "meta_rev_at_epoch": 471,
        "meta_bstar": 0.0027926679,
        "meta_mean_motion_dot": 0.00167403,
        "meta_mean_motion_ddot": 0,
        "tle_line1": "1 66573U 25268S   25347.29634150  .00167403  00000+0  27927-2 0  9990",
        "tle_line2": "2 66573  42.9994 117.8654 0001840 243.6153 116.4518 15.50639523  4712"
      },
      "geometry": {
        "type": "Point",
        "coordinates": [
          -42.0650287885178,
          -19.951528961402573
        ]
      }
    },
    {
      "type": "Feature",
      "properties": {
        "norad_id": 66574,
        "name": "STARLINK-35812",
        "group": "last-30-days",
        "lat": -21.18384016777015,
        "lon": -40.419930560261626,
        "alt_km": 415.6974284821945,
        "timestamp": "2025-12-13T18:50:03.172801+00:00",
        "meta_object_name": "STARLINK-35812",
        "meta_object_id": "2025-268T",
        "meta_epoch": "2025-12-13T07:06:14.384448",
        "meta_mean_motion": 15.50669927,
        "meta_eccentricity": 0.00018659,
        "meta_inclination": 42.9998,
        "meta_ra_of_asc_node": 117.8646,
        "meta_arg_of_pericenter": 271.0853,
        "meta_mean_anomaly": 88.9794,
        "meta_ephemeris_type": 0,
        "meta_classification_type": "U",
        "meta_norad_cat_id": 66574,
        "meta_element_set_no": 999,
        "meta_rev_at_epoch": 471,
        "meta_bstar": 0.0032054273,
        "meta_mean_motion_dot": 0.00193041,
        "meta_mean_motion_ddot": 0,
        "tle_line1": "1 66574U 25268T   25347.29599982  .00193041  00000+0  32054-2 0  9998",
        "tle_line2": "2 66574  42.9998 117.8646 0001865 271.0853  88.9794 15.50669927  4717"
      },
      "geometry": {
        "type": "Point",
        "coordinates": [
          -40.419930560261626,
          -21.18384016777015
        ]
      }
    },
    {
      "type": "Feature",
      "properties": {
        "norad_id": 66575,
        "name": "STARLINK-35810",
        "group": "last-30-days",
        "lat": -22.316480803269492,
        "lon": -38.866556476926746,
        "alt_km": 415.7609713113379,
        "timestamp": "2025-12-13T18:50:03.172811+00:00",
        "meta_object_name": "STARLINK-35810",
        "meta_object_id": "2025-268U",
        "meta_epoch": "2025-12-13T07:05:44.590272",
        "meta_mean_motion": 15.50644493,
        "meta_eccentricity": 0.00016643,
        "meta_inclination": 42.9995,
        "meta_ra_of_asc_node": 117.8602,
        "meta_arg_of_pericenter": 250.1593,
        "meta_mean_anomaly": 109.9088,
        "meta_ephemeris_type": 0,
        "meta_classification_type": "U",
        "meta_norad_cat_id": 66575,
        "meta_element_set_no": 999,
        "meta_rev_at_epoch": 471,
        "meta_bstar": 0.0021756207,
        "meta_mean_motion_dot": 0.00129731,
        "meta_mean_motion_ddot": 0,
        "tle_line1": "1 66575U 25268U   25347.29565498  .00129731  00000+0  21756-2 0  9996",
        "tle_line2": "2 66575  42.9995 117.8602 0001664 250.1593 109.9088 15.50644493  4714"
      },
      "geometry": {
        "type": "Point",
        "coordinates": [
          -38.866556476926746,
          -22.316480803269492
        ]
      }
    },
    {
      "type": "Feature",
      "properties": {
        "norad_id": 66576,
        "name": "STARLINK-35814",
        "group": "last-30-days",
        "lat": -23.533279097284478,
        "lon": -37.142852955331456,
        "alt_km": 415.5316081542005,
        "timestamp": "2025-12-13T18:50:03.172821+00:00",
        "meta_object_name": "STARLINK-35814",
        "meta_object_id": "2025-268V",
        "meta_epoch": "2025-12-13T07:05:15.002592",
        "meta_mean_motion": 15.50671663,
        "meta_eccentricity": 0.00019449,
        "meta_inclination": 42.9994,
        "meta_ra_of_asc_node": 117.8582,
        "meta_arg_of_pericenter": 256.2355,
        "meta_mean_anomaly": 103.8289,
        "meta_ephemeris_type": 0,
        "meta_classification_type": "U",
        "meta_norad_cat_id": 66576,
        "meta_element_set_no": 999,
        "meta_rev_at_epoch": 471,
        "meta_bstar": 0.0031471654,
        "meta_mean_motion_dot": 0.00189451,
        "meta_mean_motion_ddot": 0,
        "tle_line1": "1 66576U 25268V   25347.29531253  .00189451  00000+0  31472-2 0  9990",
        "tle_line2": "2 66576  42.9994 117.8582 0001944 256.2355 103.8289 15.50671663  4710"
      },
      "geometry": {
        "type": "Point",
        "coordinates": [
          -37.142852955331456,
          -23.533279097284478
        ]
      }
    }
  ]
}